IRNSS-1B                
1 39635U 14017A   25332.83757147  .00000113  00000+0  00000+0 0  9999
2 39635  28.8490 243.8302 0017691 183.8746 356.8041  1.00274122 42789
LUCH-5V                 
1 39727U 14023A   25334.80955913 -.00000248  00000+0  00000+0 0  9998
2 39727   4.6368  71.6403 0004326 196.8921 187.6155  1.00272972 42378
IRNSS-1C                
1 40269U 14061A   25334.80730578 -.00000138  00000+0  00000+0 0  9999
2 40269   6.0106  92.8591 0017873   2.9541 347.7358  1.00269635 40695
GSAT-15                 
1 41028U 15065A   25334.70962492 -.00000236  00000+0  00000+0 0  9998
2 41028   0.0129   5.3091 0003089 228.1654 185.3237  1.00270610 36808
IRNSS-1E                
1 41241U 16003A   25334.67023924 -.00000292  00000+0  00000+0 0  9994
2 41241  32.7992  62.6290 0021940 186.3992 173.7167  1.00279055 36094
IRNSS-1F                
1 41384U 16015A   25334.58323082  .00000181  00000+0  00000+0 0  9999
2 41384   4.8498 101.6022 0022355 179.2049  31.3133  1.00266329 35670
IRNSS-1G                
1 41469U 16027A   25334.81649250 -.00000311  00000+0  00000+0 0  9996
2 41469   4.7073 102.3960 0001438  17.5397  13.4616  1.00267404 35199
EUTELSAT 117 WEST B     
1 41589U 16038B   25334.69632609  .00000011  00000+0  00000+0 0  9993
2 41589   0.0076 144.1173 0000189 357.9826  61.4104  1.00266727 34678
