{
  "type": "FeatureCollection",
  "features": [
    {
      "type": "Feature",
      "properties": {
        "norad_id": 39635,
        "name": "IRNSS-1B",
        "group": "gnss",
        "lat": NaN,
        "lon": NaN,
        "alt_km": NaN,
        "timestamp": "2025-12-01T03:12:44.506795+00:00",
        "meta": {
          "OBJECT_NAME": "IRNSS-1B",
          "OBJECT_ID": "2014-017A",
          "EPOCH": "2025-11-28T20:06:06.175008",
          "MEAN_MOTION": 1.00274122,
          "ECCENTRICITY": 0.00176916,
          "INCLINATION": 28.849,
          "RA_OF_ASC_NODE": 243.8302,
          "ARG_OF_PERICENTER": 183.8746,
          "MEAN_ANOMALY": 356.8041,
          "EPHEMERIS_TYPE": 0,
          "CLASSIFICATION_TYPE": "U",
          "NORAD_CAT_ID": 39635,
          "ELEMENT_SET_NO": 999,
          "REV_AT_EPOCH": 4278,
          "BSTAR": 0,
          "MEAN_MOTION_DOT": 1.13e-06,
          "MEAN_MOTION_DDOT": 0
        }
      },
      "geometry": {
        "type": "Point",
        "coordinates": [
          NaN,
          NaN
        ]
      }
    },
    {
      "type": "Feature",
      "properties": {
        "norad_id": 39727,
        "name": "LUCH 5V (SDCM/PRN 141)",
        "group": "gnss",
        "lat": NaN,
        "lon": NaN,
        "alt_km": NaN,
        "timestamp": "2025-12-01T03:12:44.507225+00:00",
        "meta": {
          "OBJECT_NAME": "LUCH 5V (SDCM/PRN 141)",
          "OBJECT_ID": "2014-023A",
          "EPOCH": "2025-11-30T19:25:45.908832",
          "MEAN_MOTION": 1.00272972,
          "ECCENTRICITY": 0.0004326,
          "INCLINATION": 4.6368,
          "RA_OF_ASC_NODE": 71.6403,
          "ARG_OF_PERICENTER": 196.8921,
          "MEAN_ANOMALY": 187.6155,
          "EPHEMERIS_TYPE": 0,
          "CLASSIFICATION_TYPE": "U",
          "NORAD_CAT_ID": 39727,
          "ELEMENT_SET_NO": 999,
          "REV_AT_EPOCH": 4237,
          "BSTAR": 0,
          "MEAN_MOTION_DOT": -2.48e-06,
          "MEAN_MOTION_DDOT": 0
        }
      },
      "geometry": {
        "type": "Point",
        "coordinates": [
          NaN,
          NaN
        ]
      }
    },
    {
      "type": "Feature",
      "properties": {
        "norad_id": 40269,
        "name": "IRNSS-1C",
        "group": "gnss",
        "lat": NaN,
        "lon": NaN,
        "alt_km": NaN,
        "timestamp": "2025-12-01T03:12:44.507653+00:00",
        "meta": {
          "OBJECT_NAME": "IRNSS-1C",
          "OBJECT_ID": "2014-061A",
          "EPOCH": "2025-11-30T19:22:31.219392",
          "MEAN_MOTION": 1.00269635,
          "ECCENTRICITY": 0.0017873,
          "INCLINATION": 6.0106,
          "RA_OF_ASC_NODE": 92.8591,
          "ARG_OF_PERICENTER": 2.9541,
          "MEAN_ANOMALY": 347.7358,
          "EPHEMERIS_TYPE": 0,
          "CLASSIFICATION_TYPE": "U",
          "NORAD_CAT_ID": 40269,
          "ELEMENT_SET_NO": 999,
          "REV_AT_EPOCH": 4069,
          "BSTAR": 0,
          "MEAN_MOTION_DOT": -1.38e-06,
          "MEAN_MOTION_DDOT": 0
        }
      },
      "geometry": {
        "type": "Point",
        "coordinates": [
          NaN,
          NaN
        ]
      }
    },
    {
      "type": "Feature",
      "properties": {
        "norad_id": 41028,
        "name": "GSAT-15 (GAGAN/PRN 139)",
        "group": "gnss",
        "lat": NaN,
        "lon": NaN,
        "alt_km": NaN,
        "timestamp": "2025-12-01T03:12:44.508093+00:00",
        "meta": {
          "OBJECT_NAME": "GSAT-15 (GAGAN/PRN 139)",
          "OBJECT_ID": "2015-065A",
          "EPOCH": "2025-11-30T17:01:51.593088",
          "MEAN_MOTION": 1.0027061,
          "ECCENTRICITY": 0.0003089,
          "INCLINATION": 0.0129,
          "RA_OF_ASC_NODE": 5.3091,
          "ARG_OF_PERICENTER": 228.1654,
          "MEAN_ANOMALY": 185.3237,
          "EPHEMERIS_TYPE": 0,
          "CLASSIFICATION_TYPE": "U",
          "NORAD_CAT_ID": 41028,
          "ELEMENT_SET_NO": 999,
          "REV_AT_EPOCH": 3680,
          "BSTAR": 0,
          "MEAN_MOTION_DOT": -2.36e-06,
          "MEAN_MOTION_DDOT": 0
        }
      },
      "geometry": {
        "type": "Point",
        "coordinates": [
          NaN,
          NaN
        ]
      }
    },
    {
      "type": "Feature",
      "properties": {
        "norad_id": 41241,
        "name": "IRNSS-1E",
        "group": "gnss",
        "lat": NaN,
        "lon": NaN,
        "alt_km": NaN,
        "timestamp": "2025-12-01T03:12:44.508513+00:00",
        "meta": {
          "OBJECT_NAME": "IRNSS-1E",
          "OBJECT_ID": "2016-003A",
          "EPOCH": "2025-11-30T16:05:08.670336",
          "MEAN_MOTION": 1.00279055,
          "ECCENTRICITY": 0.002194,
          "INCLINATION": 32.7992,
          "RA_OF_ASC_NODE": 62.629,
          "ARG_OF_PERICENTER": 186.3992,
          "MEAN_ANOMALY": 173.7167,
          "EPHEMERIS_TYPE": 0,
          "CLASSIFICATION_TYPE": "U",
          "NORAD_CAT_ID": 41241,
          "ELEMENT_SET_NO": 999,
          "REV_AT_EPOCH": 3609,
          "BSTAR": 0,
          "MEAN_MOTION_DOT": -2.92e-06,
          "MEAN_MOTION_DDOT": 0
        }
      },
      "geometry": {
        "type": "Point",
        "coordinates": [
          NaN,
          NaN
        ]
      }
    },
    {
      "type": "Feature",
      "properties": {
        "norad_id": 41384,
        "name": "IRNSS-1F",
        "group": "gnss",
        "lat": NaN,
        "lon": NaN,
        "alt_km": NaN,
        "timestamp": "2025-12-01T03:12:44.508927+00:00",
        "meta": {
          "OBJECT_NAME": "IRNSS-1F",
          "OBJECT_ID": "2016-015A",
          "EPOCH": "2025-11-30T13:59:51.142848",
          "MEAN_MOTION": 1.00266329,
          "ECCENTRICITY": 0.0022355,
          "INCLINATION": 4.8498,
          "RA_OF_ASC_NODE": 101.6022,
          "ARG_OF_PERICENTER": 179.2049,
          "MEAN_ANOMALY": 31.3133,
          "EPHEMERIS_TYPE": 0,
          "CLASSIFICATION_TYPE": "U",
          "NORAD_CAT_ID": 41384,
          "ELEMENT_SET_NO": 999,
          "REV_AT_EPOCH": 3567,
          "BSTAR": 0,
          "MEAN_MOTION_DOT": 1.81e-06,
          "MEAN_MOTION_DDOT": 0
        }
      },
      "geometry": {
        "type": "Point",
        "coordinates": [
          NaN,
          NaN
        ]
      }
    },
    {
      "type": "Feature",
      "properties": {
        "norad_id": 41469,
        "name": "IRNSS-1G",
        "group": "gnss",
        "lat": NaN,
        "lon": NaN,
        "alt_km": NaN,
        "timestamp": "2025-12-01T03:12:44.509326+00:00",
        "meta": {
          "OBJECT_NAME": "IRNSS-1G",
          "OBJECT_ID": "2016-027A",
          "EPOCH": "2025-11-30T19:35:44.952000",
          "MEAN_MOTION": 1.00267404,
          "ECCENTRICITY": 0.0001438,
          "INCLINATION": 4.7073,
          "RA_OF_ASC_NODE": 102.396,
          "ARG_OF_PERICENTER": 17.5397,
          "MEAN_ANOMALY": 13.4616,
          "EPHEMERIS_TYPE": 0,
          "CLASSIFICATION_TYPE": "U",
          "NORAD_CAT_ID": 41469,
          "ELEMENT_SET_NO": 999,
          "REV_AT_EPOCH": 3519,
          "BSTAR": 0,
          "MEAN_MOTION_DOT": -3.11e-06,
          "MEAN_MOTION_DDOT": 0
        }
      },
      "geometry": {
        "type": "Point",
        "coordinates": [
          NaN,
          NaN
        ]
      }
    },
    {
      "type": "Feature",
      "properties": {
        "norad_id": 41589,
        "name": "EUTELSAT 117 WEST B (WAAS/PRN 131)",
        "group": "gnss",
        "lat": NaN,
        "lon": NaN,
        "alt_km": NaN,
        "timestamp": "2025-12-01T03:12:44.509741+00:00",
        "meta": {
          "OBJECT_NAME": "EUTELSAT 117 WEST B (WAAS/PRN 131)",
          "OBJECT_ID": "2016-038B",
          "EPOCH": "2025-11-30T16:42:42.574176",
          "MEAN_MOTION": 1.00266727,
          "ECCENTRICITY": 1.89e-05,
          "INCLINATION": 0.0076,
          "RA_OF_ASC_NODE": 144.1173,
          "ARG_OF_PERICENTER": 357.9826,
          "MEAN_ANOMALY": 61.4104,
          "EPHEMERIS_TYPE": 0,
          "CLASSIFICATION_TYPE": "U",
          "NORAD_CAT_ID": 41589,
          "ELEMENT_SET_NO": 999,
          "REV_AT_EPOCH": 3467,
          "BSTAR": 0,
          "MEAN_MOTION_DOT": 1.1e-07,
          "MEAN_MOTION_DDOT": 0
        }
      },
      "geometry": {
        "type": "Point",
        "coordinates": [
          NaN,
          NaN
        ]
      }
    }
  ]
}